STARLINK-1152           
1 45096U 20006BE  26068.59806897  .00079483  00000+0  20481-2 0  9993
2 45096  53.0397 206.9193 0003727 207.5385 152.5421 15.38522546337578
PELICAN-2               
1 62631U 25009Y   26068.72615733  .00073958  00000+0  18186-2 0  9997
2 62631  97.4014 159.0326 0007572 210.4407 149.6401 15.40336950 64247
