[{"OBJECT_NAME":"STARLINK-1152","OBJECT_ID":"2020-006BE","EPOCH":"2026-03-09T14:21:13.159008","MEAN_MOTION":15.38522546,"ECCENTRICITY":0.0003727,"INCLINATION":53.0397,"RA_OF_ASC_NODE":206.9193,"ARG_OF_PERICENTER":207.5385,"MEAN_ANOMALY":152.5421,"EPHEMERIS_TYPE":0,"CLASSIFICATION_TYPE":"U","NORAD_CAT_ID":45096,"ELEMENT_SET_NO":999,"REV_AT_EPOCH":33757,"BSTAR":0.0020481,"MEAN_MOTION_DOT":0.00079483,"MEAN_MOTION_DDOT":0},{"OBJECT_NAME":"PELICAN-2","OBJECT_ID":"2025-009Y","EPOCH":"2026-03-09T17:25:39.993312","MEAN_MOTION":15.4033695,"ECCENTRICITY":0.00075715,"INCLINATION":97.4014,"RA_OF_ASC_NODE":159.0326,"ARG_OF_PERICENTER":210.4407,"MEAN_ANOMALY":149.6401,"EPHEMERIS_TYPE":0,"CLASSIFICATION_TYPE":"U","NORAD_CAT_ID":62631,"ELEMENT_SET_NO":999,"REV_AT_EPOCH":6424,"BSTAR":0.0018185571,"MEAN_MOTION_DOT":0.00073958,"MEAN_MOTION_DDOT":0}]
